      2.10          N: GNSS NAV DATA                        RINEX VERSION / TYPE
fic2rin                                 09/22/2024 00:59:02 PGM / RUN BY / DATE
                                                            END OF HEADER
7  24  9 21  1 59 44.0 -.354982912540D-04  .432009983342D-11  .000000000000D+00
     .240000000000D+02 -.350312500000D+02  .466876590141D-08 -.248312834289D+01
    -.208988785744D-05  .187486296054D-01  .107828527689D-04  .515361215401D+04
     .525584000000D+06  .249594449997D-06 -.312665987195D+01 -.987201929092D-07
     .950817266796D+00  .160343750000D+03 -.210106054142D+01 -.780139638805D-08
    -.277868717205D-09  .100000000000D+01  .233200000000D+04  .000000000000D+00
     .240000000000D+01  .000000000000D+00 -.107102096081D-07  .240000000000D+02
     .518400000000D+06  .400000000000D+01
25 24  9 21  1 59 44.0  .499628484249D-03  .000000000000D+00  .000000000000D+00
     .630000000000D+02  .138812500000D+03  .460269172058D-08  .294238954474D+01
     .693276524544D-05  .117727742763D-01  .993534922600D-05  .515374225807D+04
     .525584000000D+06  .596046447754D-07 -.209892236669D+01 -.182539224625D-06
     .949708698196D+00  .178781250000D+03  .109373123052D+01 -.794318800852D-08
     .218937691062D-09  .100000000000D+01  .233200000000D+04  .000000000000D+00
     .240000000000D+01  .000000000000D+00  .558793544769D-08  .630000000000D+02
     .518400000000D+06  .400000000000D+01
6  24  9 21  2  0  0.0  .166785903275D-04 -.263753463514D-10  .000000000000D+00
     .100000000000D+02 -.949687500000D+02  .367836750449D-08 -.156388999734D+01
    -.497512519360D-05  .305213499814D-02  .885501503944D-05  .515370289421D+04
     .525600000000D+06 -.167638063431D-07  .311062246134D-01 -.204890966415D-07
     .989878247442D+00  .224500000000D+03 -.762330634131D+00 -.779639617977D-08
    -.314655963827D-09  .100000000000D+01  .233200000000D+04  .000000000000D+00
     .240000000000D+01  .000000000000D+00  .372529029846D-08  .100000000000D+02
     .518400000000D+06  .400000000000D+01
3  24  9 21  2  0  0.0  .544797163457D-03  .130739863380D-10  .000000000000D+00
     .350000000000D+02 -.321875000000D+01  .367586740035D-08 -.305075439539D+01
    -.372529029846D-07  .573109870311D-02  .104829668999D-04  .515365654945D+04
     .525600000000D+06  .428408384323D-07  .106654820403D+01  .186264514923D-08
     .985979819457D+00  .189906250000D+03  .116165741206D+01 -.747352558805D-08
     .548951437459D-09  .100000000000D+01  .233200000000D+04  .000000000000D+00
     .240000000000D+01  .000000000000D+00  .139698386192D-08  .350000000000D+02
     .518400000000D+06  .400000000000D+01
2  24  9 21  2  0  0.0 -.353743787855D-03  .795807864051D-11  .000000000000D+00
     .910000000000D+02 -.113187500000D+03  .434589530970D-08  .501066176469D+00
    -.618956983089D-05  .161491924664D-01  .801868736744D-05  .515369083405D+04
     .525600000000D+06  .931322574615D-08 -.697235855929D-01 -.270083546638D-06
     .967256361058D+00  .237468750000D+03 -.113087494877D+01 -.835177645644D-08
    -.530379235281D-09  .100000000000D+01  .233200000000D+04  .000000000000D+00
     .240000000000D+01  .000000000000D+00 -.176951289177D-07  .910000000000D+02
     .518400000000D+06  .400000000000D+01
1  24  9 21  2  0  0.0  .192605424672D-03 -.966338120634D-11  .000000000000D+00
     .770000000000D+02  .139031250000D+03  .602275087175D-08  .179874923425D+01
     .706687569618D-05  .134571949020D-01  .104829668999D-04  .515362443733D+04
     .525600000000D+06 -.283122062683D-06 -.206448790104D+01 -.251457095146D-06
     .953709040370D+00  .172562500000D+03  .103608124535D+01 -.816105422638D-08
     .297512392585D-09  .100000000000D+01  .233200000000D+04  .000000000000D+00
     .340000000000D+01  .630000000000D+02 -.195577740669D-07  .770000000000D+02
     .518400000000D+06  .400000000000D+01
5  24  9 21  2  0  0.0 -.187268946320D-03 -.125055521494D-11  .000000000000D+00
     .960000000000D+02  .100312500000D+02  .403338229228D-08  .655839314866D+00
     .569969415665D-06  .587616837583D-02  .110697001219D-04  .515367345428D+04
     .525600000000D+06 -.139698386192D-06  .101368645798D+01 -.143423676491D-06
     .972928359240D+00  .177062500000D+03  .132942549522D+01 -.780853954273D-08
     .431446542909D-09  .100000000000D+01  .233200000000D+04  .000000000000D+00
     .240000000000D+01  .000000000000D+00 -.107102096081D-07  .960000000000D+02
     .518400000000D+06  .400000000000D+01
4  24  9 21  2  0  0.0  .447493512183D-03  .704858393874D-11  .000000000000D+00
     .128000000000D+03 -.102812500000D+02  .480770026001D-08  .224609536917D-01
    -.454485416412D-06  .302252999973D-02  .494346022606D-05  .515369525719D+04
     .525600000000D+06  .484287738800D-07  .214446553588D+01 -.186264514923D-08
     .965539294610D+00  .286000000000D+03 -.300200768576D+01 -.829213111483D-08
     .165364030933D-09  .100000000000D+01  .233200000000D+04  .000000000000D+00
     .240000000000D+01  .000000000000D+00 -.465661287308D-08  .384000000000D+03
     .518400000000D+06  .400000000000D+01
22 24  9 21  2  0  0.0 -.638482160866D-04 -.363797880709D-11  .000000000000D+00
     .240000000000D+02  .106906250000D+03  .468376652625D-08  .828299371296D+00
     .547617673874D-05  .140819719527D-01  .843219459057D-05  .515369480705D+04
     .525600000000D+06 -.949949026108D-07 -.198999182024D+01 -.286847352982D-06
     .960353337794D+00  .219656250000D+03 -.111383111929D+01 -.833106130786D-08
     .284654714154D-09  .100000000000D+01  .233200000000D+04  .000000000000D+00
     .240000000000D+01  .000000000000D+00 -.111758708954D-07  .240000000000D+02
     .518400000000D+06  .400000000000D+01
27 24  9 21  2  0  0.0 -.338964164257D-04 -.113686837722D-12  .000000000000D+00
     .280000000000D+02  .265625000000D+02  .510949854541D-08  .395363609967D+00
     .152923166752D-05  .126160251675D-01  .136159360409D-05  .515368214989D+04
     .525600000000D+06 -.763684511185D-07 -.104103668724D+01  .130385160446D-06
     .960117208187D+00  .349437500000D+03  .799035899738D+00 -.892108588475D-08
    -.168221292806D-09  .100000000000D+01  .233200000000D+04  .000000000000D+00
     .240000000000D+01  .000000000000D+00  .186264514923D-08  .280000000000D+02
     .518400000000D+06  .400000000000D+01
16 24  9 21  2  0  0.0 -.175535678864D-03  .101181285572D-10  .000000000000D+00
     .240000000000D+02  .128343750000D+03  .462769276198D-08  .130657763627D+01
     .687688589096D-05  .139516592026D-01  .989809632301D-05  .515363239670D+04
     .525600000000D+06 -.197440385818D-06 -.199328529649D+01  .178813934326D-06
     .961013832141D+00  .191000000000D+03  .845184131849D+00 -.835106214097D-08
     .189293599124D-09  .100000000000D+01  .233200000000D+04  .000000000000D+00
     .240000000000D+01  .000000000000D+00 -.102445483208D-07  .240000000000D+02
     .518400000000D+06  .400000000000D+01
15 24  9 21  2  0  0.0  .206659547985D-03  .443378667114D-11  .000000000000D+00
     .290000000000D+02  .706250000000D+01  .560130474540D-08 -.654080463088D+00
     .629574060440D-06  .161331137642D-01  .478886067867D-05  .515369347382D+04
     .525600000000D+06 -.119209289551D-06  .195308862914D+01  .189989805222D-06
     .936187080978D+00  .278593750000D+03  .135704823686D+01 -.892930051264D-08
     .353586156854D-09  .100000000000D+01  .233200000000D+04  .000000000000D+00
     .240000000000D+01  .000000000000D+00 -.102445483208D-07  .290000000000D+02
     .518400000000D+06  .400000000000D+01
19 24  9 21  2  0  0.0  .540704000741D-03  .488853402203D-11  .000000000000D+00
     .250000000000D+02 -.165625000000D+01  .481198615282D-08  .218935146280D+01
     .596046447754D-07  .998656183947D-02  .165961682796D-05  .515373808479D+04
     .525600000000D+06  .184401869774D-06 -.927670265967D+00  .197440385818D-06
     .966131339020D+00  .350250000000D+03  .265163893890D+01 -.848499629130D-08
    -.303584074067D-09  .100000000000D+01  .233200000000D+04  .000000000000D+00
     .240000000000D+01  .000000000000D+00 -.153668224812D-07  .250000000000D+02
     .518400000000D+06  .400000000000D+01
12 24  9 21  2  0  0.0 -.539556611329D-03 -.272848410532D-11  .000000000000D+00
     .100000000000D+03  .127656250000D+03  .454983237592D-08  .307656498968D+01
     .662729144096D-05  .870119885076D-02  .837631523609D-05  .515359760857D+04
     .525600000000D+06  .175088644028D-06 -.201101520676D+01 -.633299350739D-07
     .961610749530D+00  .215906250000D+03  .146440699633D+01 -.797461788913D-08
     .255367779950D-09  .100000000000D+01  .233200000000D+04  .000000000000D+00
     .240000000000D+01  .000000000000D+00 -.125728547573D-07  .100000000000D+03
     .518400000000D+06  .400000000000D+01
